O3B MPOWER F1           
1 54755U 22174A   24145.31310906 -.00000012  00000+0  00000+0 0  9993
2 54755   0.0635 358.6701 0006811  67.2482 219.3070  5.00114445 27642
